CCSDS_OMM_VERS = 2.0
CREATION_DATE  = 
ORIGINATOR     = 

OBJECT_NAME    = COSMOS 1743
OBJECT_ID      = 1986-034A
CENTER_NAME    = EARTH
REF_FRAME      = TEME
TIME_SYSTEM    = UTC
MEAN_ELEMENT_THEORY = SGP/SGP4

EPOCH          = 2025-11-16T11:09:00.337536
MEAN_MOTION    = 15.50450966
ECCENTRICITY   = .00066659
INCLINATION    = 82.5377
RA_OF_ASC_NODE = 191.8427
ARG_OF_PERICENTER = 4.8737
MEAN_ANOMALY   = 355.2578

EPHEMERIS_TYPE = 0
CLASSIFICATION_TYPE = U
NORAD_CAT_ID   = 16719
ELEMENT_SET_NO = 999
REV_AT_EPOCH   = 16266
BSTAR          = .67100865E-3
MEAN_MOTION_DOT = .38382E-3
MEAN_MOTION_DDOT = 0

CCSDS_OMM_VERS = 2.0
CREATION_DATE  = 
ORIGINATOR     = 

OBJECT_NAME    = SL-14 R/B
OBJECT_ID      = 1986-046B
CENTER_NAME    = EARTH
REF_FRAME      = TEME
TIME_SYSTEM    = UTC
MEAN_ELEMENT_THEORY = SGP/SGP4

EPOCH          = 2025-11-16T13:53:08.042784
MEAN_MOTION    = 14.85448355
ECCENTRICITY   = .00217838
INCLINATION    = 82.4828
RA_OF_ASC_NODE = 187.0191
ARG_OF_PERICENTER = 240.2616
MEAN_ANOMALY   = 119.6432

EPHEMERIS_TYPE = 0
CLASSIFICATION_TYPE = U
NORAD_CAT_ID   = 16792
ELEMENT_SET_NO = 999
REV_AT_EPOCH   = 10961
BSTAR          = .96619264E-4
MEAN_MOTION_DOT = .86E-5
MEAN_MOTION_DDOT = 0

CCSDS_OMM_VERS = 2.0
CREATION_DATE  = 
ORIGINATOR     = 

OBJECT_NAME    = SL-14 R/B
OBJECT_ID      = 1986-055B
CENTER_NAME    = EARTH
REF_FRAME      = TEME
TIME_SYSTEM    = UTC
MEAN_ELEMENT_THEORY = SGP/SGP4

EPOCH          = 2025-11-16T16:53:32.322048
MEAN_MOTION    = 14.85492738
ECCENTRICITY   = .001878
INCLINATION    = 82.5218
RA_OF_ASC_NODE = 232.8334
ARG_OF_PERICENTER = 350.9910
MEAN_ANOMALY   = 24.6585

EPHEMERIS_TYPE = 0
CLASSIFICATION_TYPE = U
NORAD_CAT_ID   = 16882
ELEMENT_SET_NO = 999
REV_AT_EPOCH   = 10259
BSTAR          = .1241E-3
MEAN_MOTION_DOT = .1098E-4
MEAN_MOTION_DDOT = 0

CCSDS_OMM_VERS = 2.0
CREATION_DATE  = 
ORIGINATOR     = 

OBJECT_NAME    = AJISAI (EGS)
OBJECT_ID      = 1986-061A
CENTER_NAME    = EARTH
REF_FRAME      = TEME
TIME_SYSTEM    = UTC
MEAN_ELEMENT_THEORY = SGP/SGP4

EPOCH          = 2025-11-16T19:52:39.186048
MEAN_MOTION    = 12.44514155
ECCENTRICITY   = .00112
INCLINATION    = 50.0092
RA_OF_ASC_NODE = 80.3914
ARG_OF_PERICENTER = 0.6687
MEAN_ANOMALY   = 177.8839

EPHEMERIS_TYPE = 0
CLASSIFICATION_TYPE = U
NORAD_CAT_ID   = 16908
ELEMENT_SET_NO = 999
REV_AT_EPOCH   = 45394
BSTAR          = -.5395E-4
MEAN_MOTION_DOT = -.105E-5
MEAN_MOTION_DDOT = 0

CCSDS_OMM_VERS = 2.0
CREATION_DATE  = 
ORIGINATOR     = 

OBJECT_NAME    = COSMOS 1812
OBJECT_ID      = 1987-003A
CENTER_NAME    = EARTH
REF_FRAME      = TEME
TIME_SYSTEM    = UTC
MEAN_ELEMENT_THEORY = SGP/SGP4

EPOCH          = 2025-11-16T10:48:37.580544
MEAN_MOTION    = 15.70153959
ECCENTRICITY   = .00056182
INCLINATION    = 82.4874
RA_OF_ASC_NODE = 320.3548
ARG_OF_PERICENTER = 130.2558
MEAN_ANOMALY   = 229.9196

EPHEMERIS_TYPE = 0
CLASSIFICATION_TYPE = U
NORAD_CAT_ID   = 17295
ELEMENT_SET_NO = 999
REV_AT_EPOCH   = 12652
BSTAR          = .7840937E-3
MEAN_MOTION_DOT = .95656E-3
MEAN_MOTION_DDOT = 0

CCSDS_OMM_VERS = 2.0
CREATION_DATE  = 
ORIGINATOR     = 

OBJECT_NAME    = SL-14 R/B
OBJECT_ID      = 1987-024B
CENTER_NAME    = EARTH
REF_FRAME      = TEME
TIME_SYSTEM    = UTC
MEAN_ELEMENT_THEORY = SGP/SGP4

EPOCH          = 2025-11-16T15:40:20.023392
MEAN_MOTION    = 14.85988701
ECCENTRICITY   = .00167558
INCLINATION    = 82.5297
RA_OF_ASC_NODE = 198.9575
ARG_OF_PERICENTER = 276.0777
MEAN_ANOMALY   = 83.8530

EPHEMERIS_TYPE = 0
CLASSIFICATION_TYPE = U
NORAD_CAT_ID   = 17567
ELEMENT_SET_NO = 999
REV_AT_EPOCH   = 7134
BSTAR          = .98014619E-4
MEAN_MOTION_DOT = .882E-5
MEAN_MOTION_DDOT = 0

CCSDS_OMM_VERS = 2.0
CREATION_DATE  = 
ORIGINATOR     = 

OBJECT_NAME    = COSMOS 1833
OBJECT_ID      = 1987-027A
CENTER_NAME    = EARTH
REF_FRAME      = TEME
TIME_SYSTEM    = UTC
MEAN_ELEMENT_THEORY = SGP/SGP4

EPOCH          = 2025-11-16T15:59:54.279744
MEAN_MOTION    = 14.13019077
ECCENTRICITY   = .0021422
INCLINATION    = 70.9141
RA_OF_ASC_NODE = 203.5872
ARG_OF_PERICENTER = 8.4138
MEAN_ANOMALY   = 351.7338

EPHEMERIS_TYPE = 0
CLASSIFICATION_TYPE = U
NORAD_CAT_ID   = 17589
ELEMENT_SET_NO = 999
REV_AT_EPOCH   = 99434
BSTAR          = -.57499E-4
MEAN_MOTION_DOT = -.156E-5
MEAN_MOTION_DDOT = 0

CCSDS_OMM_VERS = 2.0
CREATION_DATE  = 
ORIGINATOR     = 

OBJECT_NAME    = SL-16 R/B
OBJECT_ID      = 1987-027B
CENTER_NAME    = EARTH
REF_FRAME      = TEME
TIME_SYSTEM    = UTC
MEAN_ELEMENT_THEORY = SGP/SGP4

EPOCH          = 2025-11-16T06:17:51.149184
MEAN_MOTION    = 14.17147560
ECCENTRICITY   = .00072638
INCLINATION    = 71.0003
RA_OF_ASC_NODE = 155.5106
ARG_OF_PERICENTER = 287.3031
MEAN_ANOMALY   = 72.7298

EPHEMERIS_TYPE = 0
CLASSIFICATION_TYPE = U
NORAD_CAT_ID   = 17590
ELEMENT_SET_NO = 999
REV_AT_EPOCH   = 99931
BSTAR          = -.40550729E-4
MEAN_MOTION_DOT = -.13E-5
MEAN_MOTION_DDOT = 0

CCSDS_OMM_VERS = 2.0
CREATION_DATE  = 
ORIGINATOR     = 

OBJECT_NAME    = SL-14 R/B
OBJECT_ID      = 1987-038B
CENTER_NAME    = EARTH
REF_FRAME      = TEME
TIME_SYSTEM    = UTC
MEAN_ELEMENT_THEORY = SGP/SGP4

EPOCH          = 2025-11-16T12:32:29.290272
MEAN_MOTION    = 14.85225798
ECCENTRICITY   = .00194612
INCLINATION    = 82.5037
RA_OF_ASC_NODE = 43.3895
ARG_OF_PERICENTER = 174.3707
MEAN_ANOMALY   = 185.7732

EPHEMERIS_TYPE = 0
CLASSIFICATION_TYPE = U
NORAD_CAT_ID   = 17912
ELEMENT_SET_NO = 999
REV_AT_EPOCH   = 6243
BSTAR          = .11704572E-3
MEAN_MOTION_DOT = .103E-4
MEAN_MOTION_DDOT = 0

CCSDS_OMM_VERS = 2.0
CREATION_DATE  = 
ORIGINATOR     = 

OBJECT_NAME    = COSMOS 1844
OBJECT_ID      = 1987-041A
CENTER_NAME    = EARTH
REF_FRAME      = TEME
TIME_SYSTEM    = UTC
MEAN_ELEMENT_THEORY = SGP/SGP4

EPOCH          = 2025-11-16T07:49:58.231488
MEAN_MOTION    = 14.14524855
ECCENTRICITY   = .00314506
INCLINATION    = 70.8992
RA_OF_ASC_NODE = 273.2793
ARG_OF_PERICENTER = 197.1665
MEAN_ANOMALY   = 162.8396

EPHEMERIS_TYPE = 0
CLASSIFICATION_TYPE = U
NORAD_CAT_ID   = 17973
ELEMENT_SET_NO = 999
REV_AT_EPOCH   = 98755
BSTAR          = .19020569E-3
MEAN_MOTION_DOT = .318E-5
MEAN_MOTION_DDOT = 0

CCSDS_OMM_VERS = 2.0
CREATION_DATE  = 
ORIGINATOR     = 

OBJECT_NAME    = SL-14 R/B
OBJECT_ID      = 1987-055B
CENTER_NAME    = EARTH
REF_FRAME      = TEME
TIME_SYSTEM    = UTC
MEAN_ELEMENT_THEORY = SGP/SGP4

EPOCH          = 2025-11-16T15:41:27.493152
MEAN_MOTION    = 14.85481865
ECCENTRICITY   = .00214295
INCLINATION    = 82.4980
RA_OF_ASC_NODE = 95.5706
ARG_OF_PERICENTER = 30.9210
MEAN_ANOMALY   = 329.3263

EPHEMERIS_TYPE = 0
CLASSIFICATION_TYPE = U
NORAD_CAT_ID   = 18153
ELEMENT_SET_NO = 999
REV_AT_EPOCH   = 5315
BSTAR          = .11594326E-3
MEAN_MOTION_DOT = .1028E-4
MEAN_MOTION_DDOT = 0

CCSDS_OMM_VERS = 2.0
CREATION_DATE  = 
ORIGINATOR     = 

OBJECT_NAME    = COSMOS 1867
OBJECT_ID      = 1987-060A
CENTER_NAME    = EARTH
REF_FRAME      = TEME
TIME_SYSTEM    = UTC
MEAN_ELEMENT_THEORY = SGP/SGP4

EPOCH          = 2025-11-16T04:40:33.362976
MEAN_MOTION    = 14.31480192
ECCENTRICITY   = .00136838
INCLINATION    = 65.0102
RA_OF_ASC_NODE = 264.5371
ARG_OF_PERICENTER = 268.4661
MEAN_ANOMALY   = 91.4856

EPHEMERIS_TYPE = 0
CLASSIFICATION_TYPE = U
NORAD_CAT_ID   = 18187
ELEMENT_SET_NO = 999
REV_AT_EPOCH   = 369
BSTAR          = .65679564E-4
MEAN_MOTION_DOT = .75E-6
MEAN_MOTION_DDOT = 0

