COSMOS 1743             
1 16719U 86034A   25320.46458724  .00038382  00000+0  67101-3 0  9998
2 16719  82.5377 191.8427 0006665   4.8737 355.2578 15.50450966162669
SL-14 R/B               
1 16792U 86046B   25320.57856531  .00000860  00000+0  96619-4 0  9999
2 16792  82.4828 187.0191 0021783 240.2616 119.6432 14.85448355109618
SL-14 R/B               
1 16882U 86055B   25320.70384632  .00001098  00000+0  12410-3 0  9992
2 16882  82.5218 232.8334 0018780 350.9910  24.6585 14.85492738102597
AJISAI (EGS)            
1 16908U 86061A   25320.82823132 -.00000105  00000+0 -53950-4 0  9999
2 16908  50.0092  80.3914 0011200   0.6687 177.8839 12.44514155453948
COSMOS 1812             
1 17295U 87003A   25320.45043496  .00095656  00000+0  78409-3 0  9990
2 17295  82.4874 320.3548 0005618 130.2558 229.9196 15.70153959126527
SL-14 R/B               
1 17567U 87024B   25320.65300953  .00000882  00000+0  98015-4 0  9994
2 17567  82.5297 198.9575 0016755 276.0777  83.8530 14.85988701 71348
COSMOS 1833             
1 17589U 87027A   25320.66660046 -.00000156  00000+0 -57499-4 0  9991
2 17589  70.9141 203.5872 0021422   8.4138 351.7338 14.13019077994348
SL-16 R/B               
1 17590U 87027B   25320.26239756 -.00000130  00000+0 -40551-4 0  9992
2 17590  71.0003 155.5106 0007263 287.3031  72.7298 14.17147560999312
SL-14 R/B               
1 17912U 87038B   25320.52256123  .00001030  00000+0  11705-3 0  9994
2 17912  82.5037  43.3895 0019461 174.3707 185.7732 14.85225798 62438
COSMOS 1844             
1 17973U 87041A   25320.32636842  .00000318  00000+0  19021-3 0  9990
2 17973  70.8992 273.2793 0031450 197.1665 162.8396 14.14524855987553
SL-14 R/B               
1 18153U 87055B   25320.65379043  .00001028  00000+0  11594-3 0  9995
2 18153  82.4980  95.5706 0021429  30.9210 329.3263 14.85481865 53158
COSMOS 1867             
1 18187U 87060A   25320.19483059  .00000075  00000+0  65680-4 0  9997
2 18187  65.0102 264.5371 0013683 268.4661  91.4856 14.31480192  3697
